{"spkid": "20001862", "covariance": {"labels": ["e", "q", "tp", "node", "peri", "i", "A2"], "elements": [{"name": "e", "sigma": 1.58851480989331e-09, "units": null, "value": ".5597120463643375", "title": "eccentricity", "label": "e"}, {"label": "q", "units": "au", "title": "perihelion distance", "value": ".6472864996968514", "name": "q", "sigma": 2.36724436818876e-09}, {"name": "tp", "sigma": 5.76359909688178e-07, "units": "TDB", "title": "time of perihelion passage", "value": "2458189.289801430618", "label": "tp"}, {"label": "node", "name": "om", "sigma": 8.25621836600046e-07, "value": "35.63587726368204", "title": "longitude of the ascending node", "units": "deg"}, {"units": "deg", "title": "argument of perihelion", "value": "285.9689021992928", "sigma": 6.81583160394255e-07, "name": "w", "label": "peri"}, {"units": "deg", "value": "6.355066377251742", "title": "inclination", "sigma": 7.48144188688653e-08, "name": "i", "label": "i"}], "data": [["2.523379301250389E-18", "-3.758852650654759E-18", "-3.438486319726223E-16", "-7.045254765200602E-16", "3.722680049845328E-16", "-6.299183258958581E-17", "1.583240978571671E-26"], ["-3.758852650654759E-18", "5.603845898721409E-18", "5.449140128546758E-16", "1.057922583791309E-15", "-5.594877451251463E-16", "9.286826127465087E-17", "-1.212522402054849E-26"], ["-3.438486319726223E-16", "5.449140128546758E-16", "3.321907454957642E-13", "1.894317042950956E-13", "-1.053957695173017E-13", "2.692958956096484E-15", "6.030763331869857E-23"], ["-7.045254765200602E-16", "1.057922583791309E-15", "1.894317042950956E-13", "6.816514170708336E-13", "-5.4401080912056E-13", "4.904681853006201E-14", "1.397549369159775E-23"], ["3.722680049845328E-16", "-5.594877451251463E-16", "-1.053957695173017E-13", "-5.4401080912056E-13", "4.645556045330211E-13", "-3.717654719398802E-14", "-9.009632536560791E-24"], ["-6.299183258958581E-17", "9.286826127465087E-17", "2.692958956096484E-15", "4.904681853006201E-14", "-3.717654719398802E-14", "5.597197270686027E-15", "-1.669465345023849E-24"], ["1.583240978571671E-26", "-1.212522402054849E-26", "6.030763331869857E-23", "1.397549369159775E-23", "-9.009632536560791E-24", "-1.669465345023849E-24", "3.980988005913527E-32"]], "epoch": "2458329.5"}, "elements": [{"label": "e", "title": "eccentricity", "value": ".5601800481273319", "units": null, "sigma": "1.5934E-9", "name": "e"}, {"label": "a", "units": "au", "value": "1.47071514163711", "title": "semi-major axis", "sigma": "1.975E-10", "name": "a"}, {"label": "q", "units": "au", "value": ".6468498628132382", "title": "perihelion distance", "name": "q", "sigma": "2.365E-9"}, {"units": "deg", "title": "inclination; angle with respect to x-y ecliptic plane", "value": "6.35217898608049", "sigma": "7.4617E-8", "name": "i", "label": "i"}, {"units": "deg", "title": "longitude of the ascending node", "value": "35.50294307848998", "name": "om", "sigma": "8.2735E-7", "label": "node"}, {"label": "peri", "name": "w", "sigma": "6.8361E-7", "units": "deg", "value": "286.0977380387027", "title": "argument of perihelion"}, {"units": "deg", "title": "mean anomaly", "value": "224.3616015017788", "sigma": "5.9438E-7", "name": "ma", "label": "M"}, {"title": "time of perihelion passage", "value": "2461445.954741005143", "units": "TDB", "sigma": "1.1214E-6", "name": "tp", "label": "tp"}, {"value": "651.4652763539533", "title": "sidereal orbital period", "units": "d", "sigma": "1.3122E-7", "name": "per", "label": "period"}, {"label": "n", "name": "n", "sigma": "1.1131E-10", "value": ".5526004425206007", "title": "mean motion", "units": "deg/d"}, {"label": "Q", "sigma": "3.0813E-10", "name": "ad", "units": "au", "value": "2.294580420460983", "title": "aphelion distance"}], "epoch": "2461200.5"}